GLOBALSTAR M063         
1 26081U 00008A   24315.50847740 -.00000049  00000+0  48568-3 0  9992
2 26081  51.9972 327.4910 0004619 254.3095 268.6501 11.86161840131623
GLOBALSTAR M062         
1 26082U 00008B   24316.19596687 -.00000110  00000+0 -80693-4 0  9996
2 26082  51.9874  16.8211 0006797   9.7578   7.2644 12.43451134132005
GLOBALSTAR M060         
1 26083U 00008C   24315.73682234 -.00000099  00000+0 -81617-4 0  9993
2 26083  52.0032 307.2755 0003626  41.0941 129.4123 12.17645585125754
GLOBALSTAR M064         
1 26084U 00008D   24315.65228360 -.00000090  00000+0 -10120-3 0  9992
2 26084  52.0039  68.5124 0001282  28.4709 331.6194 11.88525712141115
GLOBALSTAR M065         
1 31571U 07020A   24315.85798044 -.00000127  00000+0 -12838-3 0  9992
2 31571  51.9877 170.7820 0009840 175.0348 198.4111 12.61978238805847
GLOBALSTAR M069         
1 31573U 07020C   24315.79395343 -.00000063  00000+0  24001-3 0  9995
2 31573  51.9922 128.6867 0001831  80.0215 293.6226 12.53304477806938
GLOBALSTAR M072         
1 31574U 07020D   24311.51932681 -.00000041  00000+0  36751-3 0  9995
2 31574  52.0079 235.8836 0000796  74.4927  96.9119 12.56727770804691
GLOBALSTAR M071         
1 31576U 07020F   24315.86317382 -.00000069  00000+0  19511-3 0  9999
2 31576  52.0041 131.6919 0001736  73.6278  22.0953 12.62263075468166
